NORAD_CAT_ID,OBJECT_NAME,OBJECT_TYPE,EPOCH,MEAN_MOTION,ECCENTRICITY,INCLINATION,RA_OF_ASC_NODE,ARG_OF_PERICENTER,MEAN_ANOMALY,BSTAR,MEAN_MOTION_DOT,MEAN_MOTION_DDOT,TLE_LINE0,TLE_LINE1,TLE_LINE2,SEMIMAJOR_AXIS,PERIOD,APOGEE,PERIGEE,DECAYED
53622.0,STARLINK-4568,PAYLOAD,2024-02-02 09:04:35,15.08848588,0.0001561,53.2178,73.836,82.2313,277.8856,-2.0132e-05,-6.08e-06,0.0,0 STARLINK-4568,1 53622U 22104AL  24033.37819038 -.00000608  00000-0 -20132-4 0  9996,2 53622  53.2178  73.8360 0001561  82.2313 277.8856 15.08848588 79380,6917.854,95.437,540.799,538.639,0.0
53622.0,STARLINK-4568,PAYLOAD,2024-02-02 12:15:21,15.08857511,0.0001636,53.2177,73.2341,84.5716,275.5462,-0.00012589,-2.292e-05,0.0,0 STARLINK-4568,1 53622U 22104AL  24033.51066620 -.00002292  00000-0 -12589-3 0  9990,2 53622  53.2177  73.2341 0001636  84.5716 275.5462 15.08857511 80080,6917.827,95.436,540.824,538.56,0.0
53622.0,STARLINK-4568,PAYLOAD,2024-02-03 12:06:08,15.08841904,0.0001612,53.2177,68.7731,96.3828,263.7347,9.8796e-05,1.285e-05,0.0,0 STARLINK-4568,1 53622U 22104AL  24034.50426954  .00001285  00000-0  98796-4 0  9994,2 53622  53.2177  68.7731 0001612  96.3828 263.7347 15.08841904 79551,6917.875,95.437,540.855,538.624,0.0
53622.0,STARLINK-4568,PAYLOAD,2024-02-04 11:56:55,15.08845478,0.0001629,53.2187,64.3148,103.0133,257.1042,7.4944e-05,9.05e-06,0.0,0 STARLINK-4568,1 53622U 22104AL  24035.49786774  .00000905  00000-0  74944-4 0  9999,2 53622  53.2187  64.3148 0001629 103.0133 257.1042 15.08845478 80381,6917.864,95.437,540.856,538.602,0.0
53622.0,STARLINK-4568,PAYLOAD,2024-02-05 02:15:24,15.08845141,0.0002032,53.2175,61.6402,86.1142,274.0083,3.1718e-05,2.17e-06,0.0,0 STARLINK-4568,1 53622U 22104AL  24036.09403043  .00000217  00000-0  31718-4 0  9999,2 53622  53.2175  61.6402 0002032  86.1142 274.0083 15.08845141 79794,6917.865,95.437,541.135,538.324,0.0
53622.0,STARLINK-4568,PAYLOAD,2024-02-05 08:36:56,15.08846099,0.000142,53.217,60.4515,95.9092,264.2062,3.2029e-05,2.22e-06,0.0,0 STARLINK-4568,1 53622U 22104AL  24036.35898902  .00000222  00000-0  32029-4 0  9992,2 53622  53.2170  60.4515 0001420  95.9092 264.2062 15.08846099 80516,6917.862,95.437,540.709,538.744,0.0
53622.0,STARLINK-4568,PAYLOAD,2024-02-06 00:30:48,15.08835272,0.0001414,53.2172,57.4786,93.6416,266.4738,6.7593e-05,7.88e-06,0.0,0 STARLINK-4568,1 53622U 22104AL  24037.02139635  .00000788  00000-0  67593-4 0  9999,2 53622  53.2172  57.4786 0001414  93.6416 266.4738 15.08835272 79931,6917.895,95.438,540.738,538.782,0.0
53622.0,STARLINK-4568,PAYLOAD,2024-02-06 10:03:07,15.08839398,0.0001429,53.2174,55.694,97.9166,262.1988,-9.2243e-06,-4.35e-06,0.0,0 STARLINK-4568,1 53622U 22104AL  24037.41883742 -.00000435  00000-0 -92243-5 0  9999,2 53622  53.2174  55.6940 0001429  97.9166 262.1988 15.08839398 80676,6917.882,95.438,540.736,538.759,0.0
53622.0,STARLINK-4568,PAYLOAD,2024-02-07 00:21:36,15.08813769,0.0001489,53.2177,53.0179,104.7468,255.3689,0.00040304,6.128e-05,0.0,0 STARLINK-4568,1 53622U 22104AL  24038.01500841  .00006128  00000-0  40304-3 0  9994,2 53622  53.2177  53.0179 0001489 104.7468 255.3689 15.08813769 80084,6917.961,95.439,540.856,538.795,0.0
53622.0,STARLINK-4568,PAYLOAD,2024-02-07 08:18:31,15.08840905,0.0001492,53.218,51.5303,97.2105,262.9057,5.5778e-05,6e-06,0.0,0 STARLINK-4568,1 53622U 22104AL  24038.34619788  .00000600  00000-0  55778-4 0  9992,2 53622  53.2180  51.5303 0001492  97.2105 262.9057 15.08840905 80139,6917.878,95.437,540.775,538.71,0.0
53622.0,STARLINK-4568,PAYLOAD,2024-02-07 17:50:50,15.08844555,0.0001562,53.2186,49.7461,94.3533,265.7637,7.2313e-06,-1.73e-06,0.0,0 STARLINK-4568,1 53622U 22104AL  24038.74363746 -.00000173  00000-0  72313-5 0  9997,2 53622  53.2186  49.7461 0001562  94.3533 265.7637 15.08844555 80871,6917.866,95.437,540.812,538.651,0.0
53622.0,STARLINK-4568,PAYLOAD,2024-02-08 08:09:18,15.08842316,0.0001475,53.2178,47.0714,85.3636,274.7524,0.00018073,2.59e-05,0.0,0 STARLINK-4568,1 53622U 22104AL  24039.33979701  .00002590  00000-0  18073-3 0  9992,2 53622  53.2178  47.0714 0001475  85.3636 274.7524 15.08842316 80969,6917.873,95.437,540.759,538.718,0.0
53622.0,STARLINK-4568,PAYLOAD,2024-02-09 09:35:28,15.08847143,0.0001569,53.2186,42.31,90.0408,270.0764,9.1971e-05,1.176e-05,0.0,0 STARLINK-4568,1 53622U 22104AL  24040.39963693  .00001176  00000-0  91971-4 0  9991,2 53622  53.2186  42.3100 0001569  90.0408 270.0764 15.08847143 80440,6917.859,95.437,540.809,538.638,0.0
53622.0,STARLINK-4568,PAYLOAD,2024-02-10 03:04:43,15.08841217,0.0001617,53.2185,39.042,100.9247,259.1928,6.0272e-05,6.71e-06,0.0,0 STARLINK-4568,1 53622U 22104AL  24041.12828142  .00000671  00000-0  60272-4 0  9991,2 53622  53.2185  39.0420 0001617 100.9247 259.1928 15.08841217 80551,6917.877,95.437,540.86,538.623,0.0
53622.0,STARLINK-4568,PAYLOAD,2024-02-10 06:15:29,15.08846256,0.0001754,53.2187,38.4445,114.1605,245.9571,1.1219e-05,-1.1e-06,0.0,0 STARLINK-4568,1 53622U 22104AL  24041.26075922 -.00000110  00000-0  11219-4 0  9992,2 53622  53.2187  38.4445 0001754 114.1605 245.9571 15.08846256 81253,6917.861,95.437,540.94,538.513,0.0
53622.0,STARLINK-4568,PAYLOAD,2024-02-11 09:17:02,15.08848424,0.0001605,53.2177,33.3888,111.4401,248.6762,6.6521e-05,7.71e-06,0.0,0 STARLINK-4568,1 53622U 22104AL  24042.38683605  .00000771  00000-0  66521-4 0  9997,2 53622  53.2177  33.3888 0001605 111.4401 248.6762 15.08848424 80740,6917.855,95.437,540.83,538.609,0.0
53622.0,STARLINK-4568,PAYLOAD,2024-02-12 02:46:17,15.08843665,0.0001519,53.2177,30.1166,99.2347,260.8817,6.6574e-05,7.72e-06,0.0,0 STARLINK-4568,1 53622U 22104AL  24043.11547833  .00000772  00000-0  66574-4 0  9990,2 53622  53.2177  30.1166 0001519  99.2347 260.8817 15.08843665 80851,6917.869,95.437,540.785,538.683,0.0
53622.0,STARLINK-4568,PAYLOAD,2024-02-12 09:07:49,15.08855488,0.0001801,53.2191,28.9238,116.7266,243.391,9.3303e-05,1.198e-05,0.0,0 STARLINK-4568,1 53622U 22104AL  24043.38042912  .00001198  00000-0  93303-4 0  9990,2 53622  53.2191  28.9238 0001801 116.7266 243.3910 15.08855488 80891,6917.833,95.437,540.944,538.452,0.0
53622.0,STARLINK-4568,PAYLOAD,2024-02-13 02:37:04,15.08834649,0.0001722,53.22,25.6504,109.832,250.2858,1.6016e-05,-3.3e-07,0.0,0 STARLINK-4568,1 53622U 22104AL  24044.10908513 -.00000033  00000-0  16016-4 0  9993,2 53622  53.2200  25.6504 0001722 109.8320 250.2858 15.08834649 81006,6917.897,95.438,540.953,538.57,0.0
53622.0,STARLINK-4568,PAYLOAD,2024-02-13 07:23:14,15.08836996,0.000149,53.2191,24.7623,103.1033,257.0125,5.0481e-06,-2.08e-06,0.0,0 STARLINK-4568,1 53622U 22104AL  24044.30780571 -.00000208  00000-0  50481-5 0  9996,2 53622  53.2191  24.7623 0001490 103.1033 257.0125 15.08836996 81714,6917.89,95.438,540.785,538.724,0.0
53622.0,STARLINK-4568,PAYLOAD,2024-02-13 15:20:10,15.08838185,0.0001493,53.2191,23.2785,84.2293,275.887,-2.8339e-05,-7.39e-06,0.0,0 STARLINK-4568,1 53622U 22104AL  24044.63900765 -.00000739  00000-0 -28339-4 0  9997,2 53622  53.2191  23.2785 0001493  84.2293 275.8870 15.08838185 81769,6917.886,95.438,540.784,538.718,0.0
53622.0,STARLINK-4568,PAYLOAD,2024-02-14 04:03:15,15.08843946,0.0001509,53.2194,20.8974,95.918,264.1984,-3.1846e-05,-7.95e-06,0.0,0 STARLINK-4568,1 53622U 22104AL  24045.16892520 -.00000795  00000-0 -31846-4 0  9994,2 53622  53.2194  20.8974 0001509  95.9180 264.1984 15.08843946 81169,6917.868,95.437,540.777,538.689,0.0
53622.0,STARLINK-4568,PAYLOAD,2024-02-14 05:38:37,15.08848466,0.000117,53.2174,20.6035,105.6263,254.4859,-4.2398e-05,-9.63e-06,0.0,0 STARLINK-4568,1 53622U 22104AL  24045.23516104 -.00000963  00000-0 -42398-4 0  9994,2 53622  53.2174  20.6035 0001170 105.6263 254.4859 15.08848466 81859,6917.855,95.437,540.529,538.91,0.0
53622.0,STARLINK-4568,PAYLOAD,2024-02-14 15:10:56,15.08846858,0.0001212,53.2173,18.82,85.5368,274.5762,3.5953e-05,2.84e-06,0.0,0 STARLINK-4568,1 53622U 22104AL  24045.63259841  .00000284  00000-0  35953-4 0  9993,2 53622  53.2173  18.8200 0001212  85.5368 274.5762 15.08846858 81916,6917.859,95.437,540.563,538.886,0.0
53622.0,STARLINK-4568,PAYLOAD,2024-02-15 03:54:03,15.08830064,0.0001694,53.22,16.4428,94.2664,265.8521,6.8424e-05,8.01e-06,0.0,0 STARLINK-4568,1 53622U 22104AL  24046.16253514  .00000801  00000-0  68424-4 0  9997,2 53622  53.2200  16.4428 0001694  94.2664 265.8521 15.08830064 81315,6917.911,95.438,540.948,538.604,0.0
53622.0,STARLINK-4568,PAYLOAD,2024-02-15 07:04:49,15.08834522,0.0001507,53.2192,15.8454,90.336,269.7805,0.00010178,1.332e-05,0.0,0 STARLINK-4568,1 53622U 22104AL  24046.29501197  .00001332  00000-0  10178-3 0  9996,2 53622  53.2192  15.8454 0001507  90.3360 269.7805 15.08834522 82019,6917.897,95.438,540.805,538.72,0.0
53622.0,STARLINK-4568,PAYLOAD,2024-02-15 15:01:44,15.08838688,0.0001592,53.22,14.3587,82.9744,277.1429,5.9809e-05,6.64e-06,0.0,0 STARLINK-4568,1 53622U 22104AL  24046.62621170  .00000664  00000-0  59809-4 0  9999,2 53622  53.2200  14.3587 0001592  82.9744 277.1429 15.08838688 81388,6917.884,95.438,540.851,538.648,0.0
53622.0,STARLINK-4568,PAYLOAD,2024-02-16 05:20:11,15.08855116,0.0001319,53.2189,11.6845,84.8571,275.2572,0.00011607,1.561e-05,0.0,0 STARLINK-4568,1 53622U 22104AL  24047.22236070  .00001561  00000-0  11607-3 0  9997,2 53622  53.2189  11.6845 0001319  84.8571 275.2572 15.08855116 81470,6917.834,95.437,540.612,538.787,0.0
53622.0,STARLINK-4568,PAYLOAD,2024-02-16 14:52:31,15.08847308,0.0001403,53.2189,9.9001,87.1784,272.9369,7.0097e-05,8.28e-06,0.0,0 STARLINK-4568,1 53622U 22104AL  24047.61980482  .00000828  00000-0  70097-4 0  9997,2 53622  53.2189   9.9001 0001403  87.1784 272.9369 15.08847308 81539,6917.858,95.437,540.694,538.752,0.0
53622.0,STARLINK-4568,PAYLOAD,2024-02-16 21:14:04,15.08837579,0.0001483,53.2191,8.7118,87.7337,272.3825,0.00013197,1.813e-05,0.0,0 STARLINK-4568,1 53622U 22104AL  24047.88476973  .00001813  00000-0  13197-3 0  9993,2 53622  53.2191   8.7118 0001483  87.7337 272.3825 15.08837579 82256,6917.888,95.438,540.779,538.727,0.0
